<?xml version="1.0" encoding="UTF-8"?>
<gpx creator="Wikiloc - https://www.wikiloc.com" version="1.1" schemaLocation="http://www.topografix.com/GPX/1/1 http://www.topografix.com/GPX/1/1/gpx.xsd" xmlns="http://www.topografix.com/GPX/1/1" xmlns:xsi="http://www.w3.org/2001/XMLSchema-instance" xsi:schemaLocation="http://www.topografix.com/GPX/1/1 http://www.topografix.com/GPX/1/1/gpx.xsd http://www.garmin.com/xmlschemas/GpxExtensions/v3 http://www.garmin.com/xmlschemas/GpxExtensionsv3.xsd http://www.garmin.com/xmlschemas/TrackPointExtension/v1 http://www.garmin.com/xmlschemas/TrackPointExtensionv1.xsd http://www.garmin.com/xmlschemas/PowerExtension/v1 http://www.garmin.com/xmlschemas/PowerExtensionv1.xsd http://www.topografix.com/GPX/gpx_style/0/2 http://www.topografix.com/GPX/gpx_style/0/2/gpx_style.xsd" xmlns:gpxtpx="http://www.garmin.com/xmlschemas/TrackPointExtension/v1" xmlns:gpxx="http://www.garmin.com/xmlschemas/GpxExtensions/v3" xmlns:gpxpx="http://www.garmin.com/xmlschemas/PowerExtension/v1" xmlns:gpx_style="http://www.topografix.com/GPX/gpx_style/0/2">
  <metadata>
    <name>Wikiloc - Ribeira de Penha Longa</name>
    <author>
      <name>gpx.studio</name>
      <link href="https://gpx.studio"/>
    </author>
    <link href="https://www.wikiloc.com/car-trails/ribeira-de-penha-longa-140588624">
      <text>Ribeira de Penha Longa on Wikiloc</text>
    </link>
    <time>2023-07-15T11:49:11.000Z</time>
  </metadata>
  <trk>
    <name>Ribeira de Penha Longa</name>
    <trkseg>
      <trkpt lat="38.747823" lon="-9.393726">
        <ele>140.783</ele>
        <time>2023-07-15T13:43:36.000Z</time>
      </trkpt>
      <trkpt lat="38.747326" lon="-9.394014">
        <ele>139.111</ele>
        <time>2023-07-15T13:43:37.000Z</time>
      </trkpt>
      <trkpt lat="38.746883" lon="-9.394261">
        <ele>137.309</ele>
        <time>2023-07-15T13:43:38.000Z</time>
      </trkpt>
      <trkpt lat="38.746471" lon="-9.394489">
        <ele>135.323</ele>
        <time>2023-07-15T13:43:39.000Z</time>
      </trkpt>
      <trkpt lat="38.746106" lon="-9.394694">
        <ele>134.126</ele>
        <time>2023-07-15T13:43:40.000Z</time>
      </trkpt>
      <trkpt lat="38.745824" lon="-9.394879">
        <ele>133.062</ele>
        <time>2023-07-15T13:43:41.000Z</time>
      </trkpt>
      <trkpt lat="38.745634" lon="-9.395064">
        <ele>132.527</ele>
        <time>2023-07-15T13:43:43.000Z</time>
      </trkpt>
      <trkpt lat="38.745542" lon="-9.395244">
        <ele>131.61</ele>
        <time>2023-07-15T13:43:43.000Z</time>
      </trkpt>
      <trkpt lat="38.745552" lon="-9.395412">
        <ele>131.39</ele>
        <time>2023-07-15T13:43:44.000Z</time>
      </trkpt>
      <trkpt lat="38.745649" lon="-9.395544">
        <ele>131.448</ele>
        <time>2023-07-15T13:43:45.000Z</time>
      </trkpt>
      <trkpt lat="38.745812" lon="-9.395672">
        <ele>131.484</ele>
        <time>2023-07-15T13:43:46.000Z</time>
      </trkpt>
      <trkpt lat="38.746017" lon="-9.39585">
        <ele>131.686</ele>
        <time>2023-07-15T13:43:47.000Z</time>
      </trkpt>
      <trkpt lat="38.746239" lon="-9.396097">
        <ele>131.963</ele>
        <time>2023-07-15T13:43:48.000Z</time>
      </trkpt>
      <trkpt lat="38.746466" lon="-9.396414">
        <ele>131.844</ele>
        <time>2023-07-15T13:43:49.000Z</time>
      </trkpt>
      <trkpt lat="38.746691" lon="-9.396759">
        <ele>131.218</ele>
        <time>2023-07-15T13:43:50.000Z</time>
      </trkpt>
      <trkpt lat="38.746906" lon="-9.397067">
        <ele>130.209</ele>
        <time>2023-07-15T13:43:51.000Z</time>
      </trkpt>
      <trkpt lat="38.747138" lon="-9.397272">
        <ele>128.917</ele>
        <time>2023-07-15T13:43:53.000Z</time>
      </trkpt>
      <trkpt lat="38.747395" lon="-9.397354">
        <ele>128.33</ele>
        <time>2023-07-15T13:43:53.000Z</time>
      </trkpt>
      <trkpt lat="38.747663" lon="-9.397321">
        <ele>127.146</ele>
        <time>2023-07-15T13:43:54.000Z</time>
      </trkpt>
      <trkpt lat="38.747946" lon="-9.397214">
        <ele>126.181</ele>
        <time>2023-07-15T13:43:55.000Z</time>
      </trkpt>
      <trkpt lat="38.748248" lon="-9.397084">
        <ele>124.944</ele>
        <time>2023-07-15T13:43:56.000Z</time>
      </trkpt>
      <trkpt lat="38.748538" lon="-9.396961">
        <ele>123.954</ele>
        <time>2023-07-15T13:43:58.000Z</time>
      </trkpt>
      <trkpt lat="38.748788" lon="-9.396849">
        <ele>123.482</ele>
        <time>2023-07-15T13:43:58.000Z</time>
      </trkpt>
      <trkpt lat="38.74898" lon="-9.396707">
        <ele>122.568</ele>
        <time>2023-07-15T13:43:59.000Z</time>
      </trkpt>
      <trkpt lat="38.749098" lon="-9.396522">
        <ele>121.98</ele>
        <time>2023-07-15T13:44:01.000Z</time>
      </trkpt>
      <trkpt lat="38.749128" lon="-9.39632">
        <ele>121.735</ele>
        <time>2023-07-15T13:44:02.000Z</time>
      </trkpt>
      <trkpt lat="38.74907" lon="-9.396133">
        <ele>122.486</ele>
        <time>2023-07-15T13:44:02.000Z</time>
      </trkpt>
      <trkpt lat="38.748935" lon="-9.395996">
        <ele>123.714</ele>
        <time>2023-07-15T13:44:03.000Z</time>
      </trkpt>
      <trkpt lat="38.748747" lon="-9.395941">
        <ele>125.109</ele>
        <time>2023-07-15T13:44:04.000Z</time>
      </trkpt>
      <trkpt lat="38.74852" lon="-9.395956">
        <ele>126.414</ele>
        <time>2023-07-15T13:44:05.000Z</time>
      </trkpt>
      <trkpt lat="38.748263" lon="-9.396049">
        <ele>127.647</ele>
        <time>2023-07-15T13:44:06.000Z</time>
      </trkpt>
      <trkpt lat="38.747983" lon="-9.396169">
        <ele>129.713</ele>
        <time>2023-07-15T13:44:07.000Z</time>
      </trkpt>
      <trkpt lat="38.747731" lon="-9.396254">
        <ele>130.448</ele>
        <time>2023-07-15T13:44:08.000Z</time>
      </trkpt>
      <trkpt lat="38.747518" lon="-9.396264">
        <ele>131.481</ele>
        <time>2023-07-15T13:44:09.000Z</time>
      </trkpt>
      <trkpt lat="38.747328" lon="-9.396181">
        <ele>132.271</ele>
        <time>2023-07-15T13:44:11.000Z</time>
      </trkpt>
      <trkpt lat="38.747201" lon="-9.396009">
        <ele>133.029</ele>
        <time>2023-07-15T13:44:12.000Z</time>
      </trkpt>
      <trkpt lat="38.747164" lon="-9.395794">
        <ele>133.615</ele>
        <time>2023-07-15T13:44:12.000Z</time>
      </trkpt>
      <trkpt lat="38.747217" lon="-9.395579">
        <ele>133.937</ele>
        <time>2023-07-15T13:44:13.000Z</time>
      </trkpt>
      <trkpt lat="38.747352" lon="-9.395414">
        <ele>134.289</ele>
        <time>2023-07-15T13:44:14.000Z</time>
      </trkpt>
      <trkpt lat="38.747552" lon="-9.395307">
        <ele>134.606</ele>
        <time>2023-07-15T13:44:15.000Z</time>
      </trkpt>
      <trkpt lat="38.747805" lon="-9.395232">
        <ele>135.026</ele>
        <time>2023-07-15T13:44:16.000Z</time>
      </trkpt>
      <trkpt lat="38.748108" lon="-9.395167">
        <ele>135.609</ele>
        <time>2023-07-15T13:44:17.000Z</time>
      </trkpt>
      <trkpt lat="38.748456" lon="-9.395102">
        <ele>135.819</ele>
        <time>2023-07-15T13:44:18.000Z</time>
      </trkpt>
      <trkpt lat="38.748838" lon="-9.39502">
        <ele>136.092</ele>
        <time>2023-07-15T13:44:19.000Z</time>
      </trkpt>
      <trkpt lat="38.749226" lon="-9.394902">
        <ele>136.138</ele>
        <time>2023-07-15T13:44:20.000Z</time>
      </trkpt>
      <trkpt lat="38.749596" lon="-9.394714">
        <ele>136.883</ele>
        <time>2023-07-15T13:44:22.000Z</time>
      </trkpt>
      <trkpt lat="38.749943" lon="-9.394447">
        <ele>137.066</ele>
        <time>2023-07-15T13:44:22.000Z</time>
      </trkpt>
      <trkpt lat="38.750283" lon="-9.394114">
        <ele>137.456</ele>
        <time>2023-07-15T13:44:24.000Z</time>
      </trkpt>
      <trkpt lat="38.75064" lon="-9.393752">
        <ele>137.684</ele>
        <time>2023-07-15T13:44:24.000Z</time>
      </trkpt>
      <trkpt lat="38.751015" lon="-9.393367">
        <ele>137.88</ele>
        <time>2023-07-15T13:44:25.000Z</time>
      </trkpt>
      <trkpt lat="38.751398" lon="-9.392977">
        <ele>138.032</ele>
        <time>2023-07-15T13:44:26.000Z</time>
      </trkpt>
      <trkpt lat="38.751766" lon="-9.392599">
        <ele>138.379</ele>
        <time>2023-07-15T13:44:27.000Z</time>
      </trkpt>
      <trkpt lat="38.752101" lon="-9.392254">
        <ele>138.305</ele>
        <time>2023-07-15T13:44:28.000Z</time>
      </trkpt>
      <trkpt lat="38.752393" lon="-9.391954">
        <ele>138.325</ele>
        <time>2023-07-15T13:44:29.000Z</time>
      </trkpt>
      <trkpt lat="38.752648" lon="-9.391687">
        <ele>138.209</ele>
        <time>2023-07-15T13:44:30.000Z</time>
      </trkpt>
      <trkpt lat="38.752863" lon="-9.391482">
        <ele>138.288</ele>
        <time>2023-07-15T13:44:31.000Z</time>
      </trkpt>
      <trkpt lat="38.753056" lon="-9.391372">
        <ele>138.281</ele>
        <time>2023-07-15T13:44:33.000Z</time>
      </trkpt>
      <trkpt lat="38.753243" lon="-9.391364">
        <ele>138.057</ele>
        <time>2023-07-15T13:44:33.000Z</time>
      </trkpt>
      <trkpt lat="38.753403" lon="-9.391464">
        <ele>138.172</ele>
        <time>2023-07-15T13:44:34.000Z</time>
      </trkpt>
      <trkpt lat="38.753511" lon="-9.391654">
        <ele>138.615</ele>
        <time>2023-07-15T13:44:35.000Z</time>
      </trkpt>
      <trkpt lat="38.753554" lon="-9.391911">
        <ele>139.135</ele>
        <time>2023-07-15T13:44:36.000Z</time>
      </trkpt>
      <trkpt lat="38.753527" lon="-9.392201">
        <ele>139.683</ele>
        <time>2023-07-15T13:44:37.000Z</time>
      </trkpt>
      <trkpt lat="38.753427" lon="-9.392504">
        <ele>140.319</ele>
        <time>2023-07-15T13:44:38.000Z</time>
      </trkpt>
      <trkpt lat="38.753249" lon="-9.392791">
        <ele>141.551</ele>
        <time>2023-07-15T13:44:39.000Z</time>
      </trkpt>
      <trkpt lat="38.753002" lon="-9.393058">
        <ele>141.975</ele>
        <time>2023-07-15T13:44:41.000Z</time>
      </trkpt>
      <trkpt lat="38.752714" lon="-9.393331">
        <ele>141.528</ele>
        <time>2023-07-15T13:44:41.000Z</time>
      </trkpt>
      <trkpt lat="38.752392" lon="-9.393633">
        <ele>140.52</ele>
        <time>2023-07-15T13:44:42.000Z</time>
      </trkpt>
      <trkpt lat="38.75205" lon="-9.393968">
        <ele>139.309</ele>
        <time>2023-07-15T13:44:43.000Z</time>
      </trkpt>
      <trkpt lat="38.751717" lon="-9.394301">
        <ele>137.658</ele>
        <time>2023-07-15T13:44:44.000Z</time>
      </trkpt>
      <trkpt lat="38.751434" lon="-9.394589">
        <ele>135.791</ele>
        <time>2023-07-15T13:44:45.000Z</time>
      </trkpt>
      <trkpt lat="38.751211" lon="-9.394836">
        <ele>133.797</ele>
        <time>2023-07-15T13:44:46.000Z</time>
      </trkpt>
      <trkpt lat="38.751064" lon="-9.395093">
        <ele>132.992</ele>
        <time>2023-07-15T13:44:47.000Z</time>
      </trkpt>
      <trkpt lat="38.750994" lon="-9.395361">
        <ele>131.625</ele>
        <time>2023-07-15T13:44:48.000Z</time>
      </trkpt>
      <trkpt lat="38.751019" lon="-9.395621">
        <ele>130.575</ele>
        <time>2023-07-15T13:44:49.000Z</time>
      </trkpt>
      <trkpt lat="38.751132" lon="-9.395828">
        <ele>129.343</ele>
        <time>2023-07-15T13:44:51.000Z</time>
      </trkpt>
      <trkpt lat="38.751315" lon="-9.395968">
        <ele>128.439</ele>
        <time>2023-07-15T13:44:51.000Z</time>
      </trkpt>
      <trkpt lat="38.751558" lon="-9.39604">
        <ele>128.171</ele>
        <time>2023-07-15T13:44:52.000Z</time>
      </trkpt>
      <trkpt lat="38.751848" lon="-9.39609">
        <ele>128.297</ele>
        <time>2023-07-15T13:44:53.000Z</time>
      </trkpt>
      <trkpt lat="38.752141" lon="-9.396135">
        <ele>129.023</ele>
        <time>2023-07-15T13:44:54.000Z</time>
      </trkpt>
      <trkpt lat="38.752391" lon="-9.396125">
        <ele>129.325</ele>
        <time>2023-07-15T13:44:55.000Z</time>
      </trkpt>
      <trkpt lat="38.752608" lon="-9.396025">
        <ele>130.109</ele>
        <time>2023-07-15T13:44:56.000Z</time>
      </trkpt>
      <trkpt lat="38.752791" lon="-9.395835">
        <ele>131.04</ele>
        <time>2023-07-15T13:44:57.000Z</time>
      </trkpt>
      <trkpt lat="38.752963" lon="-9.395575">
        <ele>132.323</ele>
        <time>2023-07-15T13:44:59.000Z</time>
      </trkpt>
      <trkpt lat="38.753103" lon="-9.395343">
        <ele>133.879</ele>
        <time>2023-07-15T13:44:59.000Z</time>
      </trkpt>
      <trkpt lat="38.753231" lon="-9.395191">
        <ele>135.274</ele>
        <time>2023-07-15T13:45:00.000Z</time>
      </trkpt>
      <trkpt lat="38.753353" lon="-9.395153">
        <ele>136.237</ele>
        <time>2023-07-15T13:45:01.000Z</time>
      </trkpt>
      <trkpt lat="38.75344" lon="-9.395188">
        <ele>136.537</ele>
        <time>2023-07-15T13:45:02.000Z</time>
      </trkpt>
      <trkpt lat="38.7535" lon="-9.395263">
        <ele>136.655</ele>
        <time>2023-07-15T13:45:04.000Z</time>
      </trkpt>
      <trkpt lat="38.753548" lon="-9.395355">
        <ele>137.161</ele>
        <time>2023-07-15T13:45:04.000Z</time>
      </trkpt>
      <trkpt lat="38.753608" lon="-9.395438">
        <ele>137.973</ele>
        <time>2023-07-15T13:45:05.000Z</time>
      </trkpt>
      <trkpt lat="38.753686" lon="-9.395478">
        <ele>138.598</ele>
        <time>2023-07-15T13:45:06.000Z</time>
      </trkpt>
      <trkpt lat="38.753784" lon="-9.395461">
        <ele>139.415</ele>
        <time>2023-07-15T13:45:07.000Z</time>
      </trkpt>
      <trkpt lat="38.753892" lon="-9.395379">
        <ele>140.026</ele>
        <time>2023-07-15T13:45:09.000Z</time>
      </trkpt>
      <trkpt lat="38.753999" lon="-9.395232">
        <ele>141.409</ele>
        <time>2023-07-15T13:45:10.000Z</time>
      </trkpt>
      <trkpt lat="38.754106" lon="-9.39503">
        <ele>142.31</ele>
        <time>2023-07-15T13:45:10.000Z</time>
      </trkpt>
      <trkpt lat="38.754196" lon="-9.394763">
        <ele>143.133</ele>
        <time>2023-07-15T13:45:11.000Z</time>
      </trkpt>
      <trkpt lat="38.754253" lon="-9.394438">
        <ele>143.639</ele>
        <time>2023-07-15T13:45:12.000Z</time>
      </trkpt>
      <trkpt lat="38.754248" lon="-9.394081">
        <ele>144.064</ele>
        <time>2023-07-15T13:45:13.000Z</time>
      </trkpt>
      <trkpt lat="38.754181" lon="-9.393718">
        <ele>144.257</ele>
        <time>2023-07-15T13:45:14.000Z</time>
      </trkpt>
      <trkpt lat="38.754129" lon="-9.393411">
        <ele>144.387</ele>
        <time>2023-07-15T13:45:15.000Z</time>
      </trkpt>
      <trkpt lat="38.754152" lon="-9.393149">
        <ele>144.585</ele>
        <time>2023-07-15T13:45:16.000Z</time>
      </trkpt>
      <trkpt lat="38.75425" lon="-9.392946">
        <ele>144.731</ele>
        <time>2023-07-15T13:45:17.000Z</time>
      </trkpt>
      <trkpt lat="38.754415" lon="-9.392804">
        <ele>144.963</ele>
        <time>2023-07-15T13:45:18.000Z</time>
      </trkpt>
      <trkpt lat="38.754622" lon="-9.392689">
        <ele>145.278</ele>
        <time>2023-07-15T13:45:20.000Z</time>
      </trkpt>
      <trkpt lat="38.75483" lon="-9.392552">
        <ele>145.833</ele>
        <time>2023-07-15T13:45:20.000Z</time>
      </trkpt>
      <trkpt lat="38.755017" lon="-9.392364">
        <ele>146.426</ele>
        <time>2023-07-15T13:45:21.000Z</time>
      </trkpt>
      <trkpt lat="38.755174" lon="-9.392122">
        <ele>146.709</ele>
        <time>2023-07-15T13:45:23.000Z</time>
      </trkpt>
      <trkpt lat="38.755284" lon="-9.391827">
        <ele>146.858</ele>
        <time>2023-07-15T13:45:23.000Z</time>
      </trkpt>
      <trkpt lat="38.755326" lon="-9.391499">
        <ele>146.941</ele>
        <time>2023-07-15T13:45:24.000Z</time>
      </trkpt>
      <trkpt lat="38.755291" lon="-9.391166">
        <ele>147.247</ele>
        <time>2023-07-15T13:45:25.000Z</time>
      </trkpt>
      <trkpt lat="38.755183" lon="-9.390856">
        <ele>147.552</ele>
        <time>2023-07-15T13:45:26.000Z</time>
      </trkpt>
      <trkpt lat="38.755008" lon="-9.390591">
        <ele>147.865</ele>
        <time>2023-07-15T13:45:27.000Z</time>
      </trkpt>
      <trkpt lat="38.754785" lon="-9.390389">
        <ele>148.015</ele>
        <time>2023-07-15T13:45:28.000Z</time>
      </trkpt>
      <trkpt lat="38.754528" lon="-9.390251">
        <ele>148.033</ele>
        <time>2023-07-15T13:45:29.000Z</time>
      </trkpt>
      <trkpt lat="38.754255" lon="-9.390186">
        <ele>147.969</ele>
        <time>2023-07-15T13:45:30.000Z</time>
      </trkpt>
      <trkpt lat="38.753978" lon="-9.390214">
        <ele>147.821</ele>
        <time>2023-07-15T13:45:31.000Z</time>
      </trkpt>
      <trkpt lat="38.753695" lon="-9.390319">
        <ele>147.541</ele>
        <time>2023-07-15T13:45:32.000Z</time>
      </trkpt>
      <trkpt lat="38.753405" lon="-9.390477">
        <ele>147.381</ele>
        <time>2023-07-15T13:45:34.000Z</time>
      </trkpt>
      <trkpt lat="38.753102" lon="-9.390655">
        <ele>147.109</ele>
        <time>2023-07-15T13:45:34.000Z</time>
      </trkpt>
      <trkpt lat="38.752772" lon="-9.39085">
        <ele>146.909</ele>
        <time>2023-07-15T13:45:35.000Z</time>
      </trkpt>
      <trkpt lat="38.752414" lon="-9.391058">
        <ele>146.725</ele>
        <time>2023-07-15T13:45:36.000Z</time>
      </trkpt>
      <trkpt lat="38.752027" lon="-9.391281">
        <ele>146.358</ele>
        <time>2023-07-15T13:45:37.000Z</time>
      </trkpt>
      <trkpt lat="38.751617" lon="-9.391521">
        <ele>145.964</ele>
        <time>2023-07-15T13:45:38.000Z</time>
      </trkpt>
      <trkpt lat="38.751187" lon="-9.391773">
        <ele>145.479</ele>
        <time>2023-07-15T13:45:39.000Z</time>
      </trkpt>
      <trkpt lat="38.750735" lon="-9.392036">
        <ele>144.812</ele>
        <time>2023-07-15T13:45:40.000Z</time>
      </trkpt>
      <trkpt lat="38.750273" lon="-9.392308">
        <ele>144.392</ele>
        <time>2023-07-15T13:45:41.000Z</time>
      </trkpt>
      <trkpt lat="38.749805" lon="-9.392583">
        <ele>143.83</ele>
        <time>2023-07-15T13:45:42.000Z</time>
      </trkpt>
      <trkpt lat="38.749325" lon="-9.392863">
        <ele>143.266</ele>
        <time>2023-07-15T13:45:43.000Z</time>
      </trkpt>
      <trkpt lat="38.748833" lon="-9.393146">
        <ele>142.768</ele>
        <time>2023-07-15T13:45:44.000Z</time>
      </trkpt>
      <trkpt lat="38.748353" lon="-9.393423">
        <ele>141.985</ele>
        <time>2023-07-15T13:45:45.000Z</time>
      </trkpt>
      <trkpt lat="38.747896" lon="-9.393685">
        <ele>140.989</ele>
        <time>2023-07-15T13:45:46.000Z</time>
      </trkpt>
    </trkseg>
  </trk>
</gpx>
