<?xml version="1.0" encoding="UTF-8"?>
<gpx creator="Wikiloc - https://www.wikiloc.com" version="1.1" xmlns="http://www.topografix.com/GPX/1/1" xmlns:xsi="http://www.w3.org/2001/XMLSchema-instance" xsi:schemaLocation="http://www.topografix.com/GPX/1/1 http://www.topografix.com/GPX/1/1/gpx.xsd">
  <metadata>
    <name>Wikiloc - Interlagos Porsche</name>
    <link href="https://www.wikiloc.com/car-trails/interlagos-porsche-120501060">
      <text>Interlagos Porsche on Wikiloc</text>
    </link>
    <time>2022-12-03T17:43:22Z</time>
  </metadata>
  <trk>
    <name>Interlagos Porsche</name>
    <cmt></cmt>
    <desc></desc>
    <trkseg>
      <trkpt lat="-23.703189" lon="-46.699954">
        <ele>786.433</ele>
        <time>2022-12-03T17:15:00Z</time>
      </trkpt>
      <trkpt lat="-23.703235" lon="-46.700069">
        <ele>786.423</ele>
        <time>2022-12-03T17:15:40Z</time>
      </trkpt>
      <trkpt lat="-23.705911" lon="-46.699295">
        <ele>791.515</ele>
        <time>2022-12-03T17:17:00Z</time>
      </trkpt>
      <trkpt lat="-23.706350" lon="-46.698978">
        <ele>792.109</ele>
        <time>2022-12-03T17:17:12Z</time>
      </trkpt>
      <trkpt lat="-23.706363" lon="-46.698707">
        <ele>791.274</ele>
        <time>2022-12-03T17:17:15Z</time>
      </trkpt>
      <trkpt lat="-23.706061" lon="-46.698313">
        <ele>784.835</ele>
        <time>2022-12-03T17:17:21Z</time>
      </trkpt>
      <trkpt lat="-23.706019" lon="-46.698071">
        <ele>782.973</ele>
        <time>2022-12-03T17:17:23Z</time>
      </trkpt>
      <trkpt lat="-23.706261" lon="-46.697170">
        <ele>781.158</ele>
        <time>2022-12-03T17:17:28Z</time>
      </trkpt>
      <trkpt lat="-23.706207" lon="-46.696506">
        <ele>777.993</ele>
        <time>2022-12-03T17:17:32Z</time>
      </trkpt>
      <trkpt lat="-23.705877" lon="-46.695959">
        <ele>775.794</ele>
        <time>2022-12-03T17:17:37Z</time>
      </trkpt>
      <trkpt lat="-23.705414" lon="-46.695643">
        <ele>774.813</ele>
        <time>2022-12-03T17:17:42Z</time>
      </trkpt>
      <trkpt lat="-23.703498" lon="-46.695036">
        <ele>769.519</ele>
        <time>2022-12-03T17:18:07Z</time>
      </trkpt>
      <trkpt lat="-23.703358" lon="-46.695153">
        <ele>769.533</ele>
        <time>2022-12-03T17:18:08Z</time>
      </trkpt>
      <trkpt lat="-23.701427" lon="-46.694590">
        <ele>764.957</ele>
        <time>2022-12-03T17:18:23Z</time>
      </trkpt>
      <trkpt lat="-23.700294" lon="-46.694480">
        <ele>761.900</ele>
        <time>2022-12-03T17:18:32Z</time>
      </trkpt>
      <trkpt lat="-23.699886" lon="-46.694173">
        <ele>761.620</ele>
        <time>2022-12-03T17:18:35Z</time>
      </trkpt>
      <trkpt lat="-23.699559" lon="-46.694245">
        <ele>761.209</ele>
        <time>2022-12-03T17:18:38Z</time>
      </trkpt>
      <trkpt lat="-23.699684" lon="-46.694662">
        <ele>760.566</ele>
        <time>2022-12-03T17:18:39Z</time>
      </trkpt>
      <trkpt lat="-23.699357" lon="-46.694973">
        <ele>759.357</ele>
        <time>2022-12-03T17:18:42Z</time>
      </trkpt>
      <trkpt lat="-23.699302" lon="-46.695301">
        <ele>756.025</ele>
        <time>2022-12-03T17:18:44Z</time>
      </trkpt>
      <trkpt lat="-23.699446" lon="-46.695955">
        <ele>754.740</ele>
        <time>2022-12-03T17:18:48Z</time>
      </trkpt>
      <trkpt lat="-23.699878" lon="-46.696429">
        <ele>754.935</ele>
        <time>2022-12-03T17:18:52Z</time>
      </trkpt>
      <trkpt lat="-23.702021" lon="-46.698136">
        <ele>766.166</ele>
        <time>2022-12-03T17:19:11Z</time>
      </trkpt>
      <trkpt lat="-23.702309" lon="-46.698689">
        <ele>769.785</ele>
        <time>2022-12-03T17:19:15Z</time>
      </trkpt>
      <trkpt lat="-23.702290" lon="-46.699216">
        <ele>773.261</ele>
        <time>2022-12-03T17:19:18Z</time>
      </trkpt>
      <trkpt lat="-23.701990" lon="-46.699675">
        <ele>777.985</ele>
        <time>2022-12-03T17:19:21Z</time>
      </trkpt>
      <trkpt lat="-23.701691" lon="-46.699869">
        <ele>780.172</ele>
        <time>2022-12-03T17:19:23Z</time>
      </trkpt>
      <trkpt lat="-23.700884" lon="-46.700052">
        <ele>777.113</ele>
        <time>2022-12-03T17:19:30Z</time>
      </trkpt>
      <trkpt lat="-23.700622" lon="-46.699994">
        <ele>777.314</ele>
        <time>2022-12-03T17:19:33Z</time>
      </trkpt>
      <trkpt lat="-23.700524" lon="-46.699835">
        <ele>777.309</ele>
        <time>2022-12-03T17:19:35Z</time>
      </trkpt>
      <trkpt lat="-23.700755" lon="-46.699003">
        <ele>774.198</ele>
        <time>2022-12-03T17:19:42Z</time>
      </trkpt>
      <trkpt lat="-23.700652" lon="-46.698778">
        <ele>772.139</ele>
        <time>2022-12-03T17:19:44Z</time>
      </trkpt>
      <trkpt lat="-23.700449" lon="-46.698658">
        <ele>770.087</ele>
        <time>2022-12-03T17:19:46Z</time>
      </trkpt>
      <trkpt lat="-23.700144" lon="-46.698725">
        <ele>769.762</ele>
        <time>2022-12-03T17:19:49Z</time>
      </trkpt>
      <trkpt lat="-23.699275" lon="-46.699480">
        <ele>774.227</ele>
        <time>2022-12-03T17:20:05Z</time>
      </trkpt>
      <trkpt lat="-23.698741" lon="-46.699626">
        <ele>777.238</ele>
        <time>2022-12-03T17:20:12Z</time>
      </trkpt>
      <trkpt lat="-23.698514" lon="-46.699547">
        <ele>778.077</ele>
        <time>2022-12-03T17:20:15Z</time>
      </trkpt>
      <trkpt lat="-23.698470" lon="-46.699241">
        <ele>778.613</ele>
        <time>2022-12-03T17:20:18Z</time>
      </trkpt>
      <trkpt lat="-23.699024" lon="-46.698698">
        <ele>779.367</ele>
        <time>2022-12-03T17:20:23Z</time>
      </trkpt>
      <trkpt lat="-23.699279" lon="-46.698289">
        <ele>776.375</ele>
        <time>2022-12-03T17:20:26Z</time>
      </trkpt>
      <trkpt lat="-23.699270" lon="-46.697525">
        <ele>768.928</ele>
        <time>2022-12-03T17:20:31Z</time>
      </trkpt>
      <trkpt lat="-23.698995" lon="-46.697128">
        <ele>764.820</ele>
        <time>2022-12-03T17:20:34Z</time>
      </trkpt>
      <trkpt lat="-23.697880" lon="-46.696322">
        <ele>762.109</ele>
        <time>2022-12-03T17:21:11Z</time>
      </trkpt>
      <trkpt lat="-23.697586" lon="-46.696171">
        <ele>763.178</ele>
        <time>2022-12-03T17:21:55Z</time>
      </trkpt>
      <trkpt lat="-23.697374" lon="-46.696250">
        <ele>763.479</ele>
        <time>2022-12-03T17:22:08Z</time>
      </trkpt>
      <trkpt lat="-23.697040" lon="-46.697180">
        <ele>768.747</ele>
        <time>2022-12-03T17:22:48Z</time>
      </trkpt>
      <trkpt lat="-23.697033" lon="-46.697558">
        <ele>771.832</ele>
        <time>2022-12-03T17:23:03Z</time>
      </trkpt>
      <trkpt lat="-23.697317" lon="-46.698688">
        <ele>782.417</ele>
        <time>2022-12-03T17:23:38Z</time>
      </trkpt>
      <trkpt lat="-23.697816" lon="-46.699590">
        <ele>789.028</ele>
        <time>2022-12-03T17:23:52Z</time>
      </trkpt>
      <trkpt lat="-23.698350" lon="-46.699935">
        <ele>790.987</ele>
        <time>2022-12-03T17:24:10Z</time>
      </trkpt>
      <trkpt lat="-23.699345" lon="-46.700207">
        <ele>790.693</ele>
        <time>2022-12-03T17:24:27Z</time>
      </trkpt>
      <trkpt lat="-23.700640" lon="-46.700522">
        <ele>789.187</ele>
        <time>2022-12-03T17:24:44Z</time>
      </trkpt>
      <trkpt lat="-23.701407" lon="-46.700519">
        <ele>788.448</ele>
        <time>2022-12-03T17:24:54Z</time>
      </trkpt>
      <trkpt lat="-23.705875" lon="-46.699334">
        <ele>794.461</ele>
        <time>2022-12-03T17:25:43Z</time>
      </trkpt>
      <trkpt lat="-23.706294" lon="-46.699096">
        <ele>794.417</ele>
        <time>2022-12-03T17:25:52Z</time>
      </trkpt>
      <trkpt lat="-23.706388" lon="-46.698780">
        <ele>792.009</ele>
        <time>2022-12-03T17:25:58Z</time>
      </trkpt>
      <trkpt lat="-23.705941" lon="-46.698133">
        <ele>783.525</ele>
        <time>2022-12-03T17:26:07Z</time>
      </trkpt>
      <trkpt lat="-23.706234" lon="-46.697326">
        <ele>779.836</ele>
        <time>2022-12-03T17:26:14Z</time>
      </trkpt>
      <trkpt lat="-23.706258" lon="-46.696854">
        <ele>778.444</ele>
        <time>2022-12-03T17:26:18Z</time>
      </trkpt>
      <trkpt lat="-23.706136" lon="-46.696412">
        <ele>776.819</ele>
        <time>2022-12-03T17:26:24Z</time>
      </trkpt>
      <trkpt lat="-23.705885" lon="-46.696028">
        <ele>776.244</ele>
        <time>2022-12-03T17:26:32Z</time>
      </trkpt>
      <trkpt lat="-23.705420" lon="-46.695694">
        <ele>775.765</ele>
        <time>2022-12-03T17:26:41Z</time>
      </trkpt>
      <trkpt lat="-23.704261" lon="-46.695295">
        <ele>773.724</ele>
        <time>2022-12-03T17:26:58Z</time>
      </trkpt>
      <trkpt lat="-23.702250" lon="-46.694761">
        <ele>768.570</ele>
        <time>2022-12-03T17:27:38Z</time>
      </trkpt>
      <trkpt lat="-23.700739" lon="-46.694462">
        <ele>765.294</ele>
        <time>2022-12-03T17:29:07Z</time>
      </trkpt>
      <trkpt lat="-23.700345" lon="-46.694470">
        <ele>764.992</ele>
        <time>2022-12-03T17:29:23Z</time>
      </trkpt>
      <trkpt lat="-23.699878" lon="-46.694177">
        <ele>764.373</ele>
        <time>2022-12-03T17:29:35Z</time>
      </trkpt>
      <trkpt lat="-23.699524" lon="-46.694239">
        <ele>762.820</ele>
        <time>2022-12-03T17:29:47Z</time>
      </trkpt>
      <trkpt lat="-23.699360" lon="-46.695452">
        <ele>757.009</ele>
        <time>2022-12-03T17:30:00Z</time>
      </trkpt>
      <trkpt lat="-23.699555" lon="-46.696071">
        <ele>756.630</ele>
        <time>2022-12-03T17:30:13Z</time>
      </trkpt>
      <trkpt lat="-23.702063" lon="-46.698207">
        <ele>769.531</ele>
        <time>2022-12-03T17:31:06Z</time>
      </trkpt>
      <trkpt lat="-23.702330" lon="-46.698669">
        <ele>771.919</ele>
        <time>2022-12-03T17:31:11Z</time>
      </trkpt>
      <trkpt lat="-23.702317" lon="-46.699168">
        <ele>774.014</ele>
        <time>2022-12-03T17:31:15Z</time>
      </trkpt>
      <trkpt lat="-23.702034" lon="-46.699672">
        <ele>779.299</ele>
        <time>2022-12-03T17:31:19Z</time>
      </trkpt>
      <trkpt lat="-23.701691" lon="-46.699854">
        <ele>780.610</ele>
        <time>2022-12-03T17:31:22Z</time>
      </trkpt>
      <trkpt lat="-23.700915" lon="-46.700028">
        <ele>781.439</ele>
        <time>2022-12-03T17:31:28Z</time>
      </trkpt>
      <trkpt lat="-23.700714" lon="-46.699992">
        <ele>781.115</ele>
        <time>2022-12-03T17:31:30Z</time>
      </trkpt>
      <trkpt lat="-23.700581" lon="-46.699843">
        <ele>780.989</ele>
        <time>2022-12-03T17:31:32Z</time>
      </trkpt>
      <trkpt lat="-23.700774" lon="-46.699055">
        <ele>778.224</ele>
        <time>2022-12-03T17:31:39Z</time>
      </trkpt>
      <trkpt lat="-23.700652" lon="-46.698750">
        <ele>775.304</ele>
        <time>2022-12-03T17:31:42Z</time>
      </trkpt>
      <trkpt lat="-23.700447" lon="-46.698644">
        <ele>774.014</ele>
        <time>2022-12-03T17:31:44Z</time>
      </trkpt>
      <trkpt lat="-23.700212" lon="-46.698689">
        <ele>773.609</ele>
        <time>2022-12-03T17:31:46Z</time>
      </trkpt>
      <trkpt lat="-23.699287" lon="-46.699428">
        <ele>778.883</ele>
        <time>2022-12-03T17:31:57Z</time>
      </trkpt>
      <trkpt lat="-23.698556" lon="-46.699564">
        <ele>781.294</ele>
        <time>2022-12-03T17:32:07Z</time>
      </trkpt>
      <trkpt lat="-23.698473" lon="-46.699274">
        <ele>781.662</ele>
        <time>2022-12-03T17:32:11Z</time>
      </trkpt>
      <trkpt lat="-23.699067" lon="-46.698684">
        <ele>780.727</ele>
        <time>2022-12-03T17:32:18Z</time>
      </trkpt>
      <trkpt lat="-23.699313" lon="-46.698295">
        <ele>779.552</ele>
        <time>2022-12-03T17:32:21Z</time>
      </trkpt>
      <trkpt lat="-23.699375" lon="-46.697789">
        <ele>776.523</ele>
        <time>2022-12-03T17:32:24Z</time>
      </trkpt>
      <trkpt lat="-23.699258" lon="-46.697439">
        <ele>773.882</ele>
        <time>2022-12-03T17:32:26Z</time>
      </trkpt>
      <trkpt lat="-23.698882" lon="-46.696993">
        <ele>768.768</ele>
        <time>2022-12-03T17:32:29Z</time>
      </trkpt>
      <trkpt lat="-23.697808" lon="-46.696237">
        <ele>766.882</ele>
        <time>2022-12-03T17:32:37Z</time>
      </trkpt>
      <trkpt lat="-23.697555" lon="-46.696198">
        <ele>767.467</ele>
        <time>2022-12-03T17:32:39Z</time>
      </trkpt>
      <trkpt lat="-23.697340" lon="-46.696311">
        <ele>768.281</ele>
        <time>2022-12-03T17:32:41Z</time>
      </trkpt>
      <trkpt lat="-23.697098" lon="-46.696788">
        <ele>769.719</ele>
        <time>2022-12-03T17:32:45Z</time>
      </trkpt>
      <trkpt lat="-23.697001" lon="-46.697227">
        <ele>773.409</ele>
        <time>2022-12-03T17:32:48Z</time>
      </trkpt>
      <trkpt lat="-23.697128" lon="-46.698140">
        <ele>783.997</ele>
        <time>2022-12-03T17:32:52Z</time>
      </trkpt>
      <trkpt lat="-23.697373" lon="-46.698851">
        <ele>791.518</ele>
        <time>2022-12-03T17:32:55Z</time>
      </trkpt>
      <trkpt lat="-23.697727" lon="-46.699447">
        <ele>794.756</ele>
        <time>2022-12-03T17:32:58Z</time>
      </trkpt>
      <trkpt lat="-23.698473" lon="-46.699933">
        <ele>798.581</ele>
        <time>2022-12-03T17:33:02Z</time>
      </trkpt>
      <trkpt lat="-23.700695" lon="-46.700534">
        <ele>793.856</ele>
        <time>2022-12-03T17:33:14Z</time>
      </trkpt>
      <trkpt lat="-23.701988" lon="-46.700491">
        <ele>790.427</ele>
        <time>2022-12-03T17:33:39Z</time>
      </trkpt>
      <trkpt lat="-23.705230" lon="-46.699586">
        <ele>796.696</ele>
        <time>2022-12-03T17:35:30Z</time>
      </trkpt>
      <trkpt lat="-23.705287" lon="-46.699647">
        <ele>796.712</ele>
        <time>2022-12-03T17:35:31Z</time>
      </trkpt>
      <trkpt lat="-23.706243" lon="-46.699300">
        <ele>797.956</ele>
        <time>2022-12-03T17:36:04Z</time>
      </trkpt>
      <trkpt lat="-23.706697" lon="-46.698852">
        <ele>795.833</ele>
        <time>2022-12-03T17:36:22Z</time>
      </trkpt>
      <trkpt lat="-23.705938" lon="-46.698171">
        <ele>786.623</ele>
        <time>2022-12-03T17:37:50Z</time>
      </trkpt>
      <trkpt lat="-23.705773" lon="-46.698244">
        <ele>785.715</ele>
        <time>2022-12-03T17:39:09Z</time>
      </trkpt>
      <trkpt lat="-23.705536" lon="-46.698007">
        <ele>784.809</ele>
        <time>2022-12-03T17:40:37Z</time>
      </trkpt>
      <trkpt lat="-23.705368" lon="-46.698121">
        <ele>784.024</ele>
        <time>2022-12-03T17:41:17Z</time>
      </trkpt>
      <trkpt lat="-23.705128" lon="-46.698024">
        <ele>783.865</ele>
        <time>2022-12-03T17:41:51Z</time>
      </trkpt>
      <trkpt lat="-23.705073" lon="-46.697204">
        <ele>780.883</ele>
        <time>2022-12-03T17:42:25Z</time>
      </trkpt>
      <trkpt lat="-23.704446" lon="-46.696803">
        <ele>780.488</ele>
        <time>2022-12-03T17:42:36Z</time>
      </trkpt>
      <trkpt lat="-23.703916" lon="-46.697450">
        <ele>779.753</ele>
        <time>2022-12-03T17:42:48Z</time>
      </trkpt>
      <trkpt lat="-23.703835" lon="-46.697705">
        <ele>779.794</ele>
        <time>2022-12-03T17:42:58Z</time>
      </trkpt>
      <trkpt lat="-23.704081" lon="-46.697855">
        <ele>780.243</ele>
        <time>2022-12-03T17:43:17Z</time>
      </trkpt>
      <trkpt lat="-23.703977" lon="-46.697809">
        <ele>781.199</ele>
        <time>2022-12-03T17:43:22Z</time>
      </trkpt>
    </trkseg>
  </trk></gpx>