<?xml version="1.0"?>
<gpx version="1.1" creator="GDAL 3.6.3" xmlns:xsi="http://www.w3.org/2001/XMLSchema-instance" xmlns:ogr="http://osgeo.org/gdal" xmlns="http://www.topografix.com/GPX/1/1" xsi:schemaLocation="http://www.topografix.com/GPX/1/1 http://www.topografix.com/GPX/1/1/gpx.xsd">
<metadata><bounds minlat="-37.853895044994502" minlon="144.962161084414987" maxlat="-37.838032978992999" maxlon="144.978640532660989"/></metadata>              
<trk>
  <name>Untitled polygon</name>
  <trkseg>
    <trkpt lat="-37.8509215651125" lon="144.970051740511991">
        <ele>0.0</ele>
    </trkpt>
    <trkpt lat="-37.851571379538797" lon="144.97087287696101">
        <ele>0.0</ele>
    </trkpt>
    <trkpt lat="-37.852278619006498" lon="144.971761528110989">
        <ele>0.0</ele>
    </trkpt>
    <trkpt lat="-37.852767249814598" lon="144.972412605133997">
        <ele>0.0</ele>
    </trkpt>
    <trkpt lat="-37.852883542500102" lon="144.972826842761009">
        <ele>0.0</ele>
    </trkpt>
    <trkpt lat="-37.852787114545301" lon="144.973226936569006">
        <ele>0.0</ele>
    </trkpt>
    <trkpt lat="-37.852398215257402" lon="144.973596697652994">
        <ele>0.0</ele>
    </trkpt>
    <trkpt lat="-37.852201205113303" lon="144.973861539577001">
        <ele>0.0</ele>
    </trkpt>
    <trkpt lat="-37.852124815537501" lon="144.974101861836004">
        <ele>0.0</ele>
    </trkpt>
    <trkpt lat="-37.852179533665399" lon="144.974301725199012">
        <ele>0.0</ele>
    </trkpt>
    <trkpt lat="-37.852422428264603" lon="144.974514771119999">
        <ele>0.0</ele>
    </trkpt>
    <trkpt lat="-37.8530987723301" lon="144.974988204519008">
        <ele>0.0</ele>
    </trkpt>
    <trkpt lat="-37.853597622500999" lon="144.97529555275699">
        <ele>0.0</ele>
    </trkpt>
    <trkpt lat="-37.853854236487201" lon="144.975699025761003">
        <ele>0.0</ele>
    </trkpt>
    <trkpt lat="-37.853895044994502" lon="144.976219790355998">
        <ele>0.0</ele>
    </trkpt>
    <trkpt lat="-37.853695144606696" lon="144.977041332482997">
        <ele>0.0</ele>
    </trkpt>
    <trkpt lat="-37.853572972563697" lon="144.977626936852005">
        <ele>0.0</ele>
    </trkpt>
    <trkpt lat="-37.853514998614301" lon="144.978250545885004">
        <ele>0.0</ele>
    </trkpt>
    <trkpt lat="-37.853366684189098" lon="144.978597191164994">
        <ele>0.0</ele>
    </trkpt>
    <trkpt lat="-37.853225752897401" lon="144.978640532660989">
        <ele>0.0</ele>
    </trkpt>
    <trkpt lat="-37.852571315265301" lon="144.978434571304007">
        <ele>0.0</ele>
    </trkpt>
    <trkpt lat="-37.851579039677098" lon="144.978109122032009">
        <ele>0.0</ele>
    </trkpt>
    <trkpt lat="-37.850428066956603" lon="144.977658658140996">
        <ele>0.0</ele>
    </trkpt>
    <trkpt lat="-37.849721915474497" lon="144.977209250519991">
        <ele>0.0</ele>
    </trkpt>
    <trkpt lat="-37.849218064150797" lon="144.976597235139991">
        <ele>0.0</ele>
    </trkpt>
    <trkpt lat="-37.848474826852502" lon="144.975444291478993">
        <ele>0.0</ele>
    </trkpt>
    <trkpt lat="-37.848120522197803" lon="144.97478335575201">
        <ele>0.0</ele>
    </trkpt>
    <trkpt lat="-37.848125780509498" lon="144.973917175254996">
        <ele>0.0</ele>
    </trkpt>
    <trkpt lat="-37.848020340484702" lon="144.973265414985008">
        <ele>0.0</ele>
    </trkpt>
    <trkpt lat="-37.847408329347203" lon="144.972255196141987">
        <ele>0.0</ele>
    </trkpt>
    <trkpt lat="-37.846440490058399" lon="144.971190784864007">
        <ele>0.0</ele>
    </trkpt>
    <trkpt lat="-37.845480862274499" lon="144.970693430353009">
        <ele>0.0</ele>
    </trkpt>
    <trkpt lat="-37.844720570973003" lon="144.970611733369992">
        <ele>0.0</ele>
    </trkpt>
    <trkpt lat="-37.843903149402003" lon="144.970722578503995">
        <ele>0.0</ele>
    </trkpt>
    <trkpt lat="-37.843214510059298" lon="144.971033388680013">
        <ele>0.0</ele>
    </trkpt>
    <trkpt lat="-37.842200456578503" lon="144.971554607007988">
        <ele>0.0</ele>
    </trkpt>
    <trkpt lat="-37.841439482494998" lon="144.97177059875699">
        <ele>0.0</ele>
    </trkpt>
    <trkpt lat="-37.840766513423297" lon="144.971685070251993">
        <ele>0.0</ele>
    </trkpt>
    <trkpt lat="-37.839897010446201" lon="144.971470251244995">
        <ele>0.0</ele>
    </trkpt>
    <trkpt lat="-37.839375003759898" lon="144.971186863587008">
        <ele>0.0</ele>
    </trkpt>
    <trkpt lat="-37.838961471941502" lon="144.970772758768987">
        <ele>0.0</ele>
    </trkpt>
    <trkpt lat="-37.838587483090699" lon="144.969917548235998">
        <ele>0.0</ele>
    </trkpt>
    <trkpt lat="-37.838491476898902" lon="144.969100976835989">
        <ele>0.0</ele>
    </trkpt>
    <trkpt lat="-37.838343474387202" lon="144.968532972051008">
        <ele>0.0</ele>
    </trkpt>
    <trkpt lat="-37.838032978992999" lon="144.967956323923005">
        <ele>0.0</ele>
    </trkpt>
    <trkpt lat="-37.838060711946902" lon="144.967610563107002">
        <ele>0.0</ele>
    </trkpt>
    <trkpt lat="-37.838406850917202" lon="144.966876234741989">
        <ele>0.0</ele>
    </trkpt>
    <trkpt lat="-37.838807144114199" lon="144.965528173387014">
        <ele>0.0</ele>
    </trkpt>
    <trkpt lat="-37.839247180457903" lon="144.964649201754014">
        <ele>0.0</ele>
    </trkpt>
    <trkpt lat="-37.839710928454998" lon="144.963923903965991">
        <ele>0.0</ele>
    </trkpt>
    <trkpt lat="-37.839940778837999" lon="144.963692673757009">
        <ele>0.0</ele>
    </trkpt>
    <trkpt lat="-37.840801317906703" lon="144.963713371983005">
        <ele>0.0</ele>
    </trkpt>
    <trkpt lat="-37.841341080691599" lon="144.963774008765">
        <ele>0.0</ele>
    </trkpt>
    <trkpt lat="-37.841787739688598" lon="144.963685958365005">
        <ele>0.0</ele>
    </trkpt>
    <trkpt lat="-37.841897740428102" lon="144.963483239480013">
        <ele>0.0</ele>
    </trkpt>
    <trkpt lat="-37.841979892334102" lon="144.962980336867986">
        <ele>0.0</ele>
    </trkpt>
    <trkpt lat="-37.842071645231698" lon="144.962563886524009">
        <ele>0.0</ele>
    </trkpt>
    <trkpt lat="-37.842190605176398" lon="144.962213108521013">
        <ele>0.0</ele>
    </trkpt>
    <trkpt lat="-37.842374818252999" lon="144.962161084414987">
        <ele>0.0</ele>
    </trkpt>
    <trkpt lat="-37.842670370074899" lon="144.962366146801003">
        <ele>0.0</ele>
    </trkpt>
    <trkpt lat="-37.843560326414497" lon="144.963024101848987">
        <ele>0.0</ele>
    </trkpt>
    <trkpt lat="-37.844427554758397" lon="144.963823260498003">
        <ele>0.0</ele>
    </trkpt>
    <trkpt lat="-37.845224692533897" lon="144.964673591780013">
        <ele>0.0</ele>
    </trkpt>
    <trkpt lat="-37.845921061473703" lon="144.965585758738996">
        <ele>0.0</ele>
    </trkpt>
    <trkpt lat="-37.846365940540402" lon="144.966113388474014">
        <ele>0.0</ele>
    </trkpt>
    <trkpt lat="-37.846786143465302" lon="144.966281986967005">
        <ele>0.0</ele>
    </trkpt>
    <trkpt lat="-37.847209975369204" lon="144.966214354001011">
        <ele>0.0</ele>
    </trkpt>
    <trkpt lat="-37.847613776231803" lon="144.966032740215013">
        <ele>0.0</ele>
    </trkpt>
    <trkpt lat="-37.8478094663134" lon="144.966141402488006">
        <ele>0.0</ele>
    </trkpt>
    <trkpt lat="-37.848464725594098" lon="144.966992493617994">
        <ele>0.0</ele>
    </trkpt>
    <trkpt lat="-37.849335100191603" lon="144.968068811350008">
        <ele>0.0</ele>
    </trkpt>
    <trkpt lat="-37.850048444622303" lon="144.968999546168988">
        <ele>0.0</ele>
    </trkpt>
    <trkpt lat="-37.8509215651125" lon="144.970051740511991">
        <ele>0.0</ele>
    </trkpt>
  </trkseg>
</trk>
</gpx>
