<?xml version="1.0" encoding="UTF-8"?><gpx creator="Wikiloc - https://www.wikiloc.com" version="1.1" xmlns="http://www.topografix.com/GPX/1/1" xmlns:xsi="http://www.w3.org/2001/XMLSchema-instance" xsi:schemaLocation="http://www.topografix.com/GPX/1/1 http://www.topografix.com/GPX/1/1/gpx.xsd"><metadata><name>Wikiloc - monza</name><author><name>Maximus81</name><link href="https://www.wikiloc.com/wikiloc/user.do?id=1465409"><text>Maximus81 on Wikiloc</text></link></author><link href="https://www.wikiloc.com/motorcycling-trails/monza-9337229"><text>monza on Wikiloc</text></link><time>2015-04-11T15:08:32.828Z</time></metadata><trk><name>monza</name><cmt></cmt><desc></desc><trkseg><trkpt lat="45.616199" lon="9.280780"><ele>185.011</ele><time>2025-07-29T10:24:54.250421586Z</time></trkpt><trkpt lat="45.617058" lon="9.280898"><ele>194.021</ele><time>2025-07-29T10:25:34.250425734Z</time></trkpt><trkpt lat="45.618159" lon="9.281063"><ele>185.003</ele><time>2025-07-29T10:26:14.250428820Z</time></trkpt><trkpt lat="45.618929" lon="9.281170"><ele>184.007</ele><time>2025-07-29T10:26:54.250431655Z</time></trkpt><trkpt lat="45.620140" lon="9.281362"><ele>182.020</ele><time>2025-07-29T10:27:34.250434450Z</time></trkpt><trkpt lat="45.622351" lon="9.281631"><ele>190.014</ele><time>2025-07-29T10:28:14.250436865Z</time></trkpt><trkpt lat="45.623018" lon="9.281715"><ele>191.014</ele><time>2025-07-29T10:28:54.250439119Z</time></trkpt><trkpt lat="45.623406" lon="9.281760"><ele>190.078</ele><time>2025-07-29T10:29:34.250441393Z</time></trkpt><trkpt lat="45.623839" lon="9.281814"><ele>190.083</ele><time>2025-07-29T10:30:14.250443617Z</time></trkpt><trkpt lat="45.624460" lon="9.281893"><ele>191.033</ele><time>2025-07-29T10:30:54.250445861Z</time></trkpt><trkpt lat="45.624520" lon="9.281917"><ele>191.050</ele><time>2025-07-29T10:31:34.250448156Z</time></trkpt><trkpt lat="45.624559" lon="9.281996"><ele>191.032</ele><time>2025-07-29T10:32:14.250450520Z</time></trkpt><trkpt lat="45.624571" lon="9.282137"><ele>191.092</ele><time>2025-07-29T10:32:54.250452774Z</time></trkpt><trkpt lat="45.624564" lon="9.282314"><ele>191.011</ele><time>2025-07-29T10:33:34.250455049Z</time></trkpt><trkpt lat="45.624613" lon="9.282435"><ele>190.007</ele><time>2025-07-29T10:34:14.250457303Z</time></trkpt><trkpt lat="45.624714" lon="9.282487"><ele>190.042</ele><time>2025-07-29T10:34:54.250459527Z</time></trkpt><trkpt lat="45.625062" lon="9.282341"><ele>190.036</ele><time>2025-07-29T10:35:34.250461771Z</time></trkpt><trkpt lat="45.625563" lon="9.282157"><ele>187.036</ele><time>2025-07-29T10:36:14.250463985Z</time></trkpt><trkpt lat="45.625981" lon="9.282085"><ele>187.010</ele><time>2025-07-29T10:36:54.250466230Z</time></trkpt><trkpt lat="45.626344" lon="9.282089"><ele>187.055</ele><time>2025-07-29T10:37:34.250468434Z</time></trkpt><trkpt lat="45.626604" lon="9.282120"><ele>188.065</ele><time>2025-07-29T10:38:14.250470658Z</time></trkpt><trkpt lat="45.626982" lon="9.282169"><ele>188.022</ele><time>2025-07-29T10:38:54.250472862Z</time></trkpt><trkpt lat="45.627477" lon="9.282234"><ele>186.074</ele><time>2025-07-29T10:39:34.250475146Z</time></trkpt><trkpt lat="45.627797" lon="9.282327"><ele>186.056</ele><time>2025-07-29T10:40:14.250477410Z</time></trkpt><trkpt lat="45.628102" lon="9.282470"><ele>188.021</ele><time>2025-07-29T10:40:54.250479725Z</time></trkpt><trkpt lat="45.628385" lon="9.282663"><ele>192.007</ele><time>2025-07-29T10:41:34.250481959Z</time></trkpt><trkpt lat="45.628681" lon="9.282928"><ele>192.096</ele><time>2025-07-29T10:42:14.253755170Z</time></trkpt><trkpt lat="45.628910" lon="9.283188"><ele>192.060</ele><time>2025-07-29T10:42:54.253766061Z</time></trkpt><trkpt lat="45.629140" lon="9.283526"><ele>191.080</ele><time>2025-07-29T10:43:34.253769106Z</time></trkpt><trkpt lat="45.629338" lon="9.283927"><ele>191.024</ele><time>2025-07-29T10:44:14.253771661Z</time></trkpt><trkpt lat="45.629545" lon="9.284425"><ele>192.099</ele><time>2025-07-29T10:44:54.253774046Z</time></trkpt><trkpt lat="45.629713" lon="9.284975"><ele>193.049</ele><time>2025-07-29T10:45:34.253776360Z</time></trkpt><trkpt lat="45.629849" lon="9.285627"><ele>191.036</ele><time>2025-07-29T10:46:14.253778714Z</time></trkpt><trkpt lat="45.629925" lon="9.286241"><ele>191.033</ele><time>2025-07-29T10:46:54.253781850Z</time></trkpt><trkpt lat="45.629969" lon="9.286830"><ele>190.023</ele><time>2025-07-29T10:47:34.253785086Z</time></trkpt><trkpt lat="45.630010" lon="9.287649"><ele>193.015</ele><time>2025-07-29T10:48:14.253787841Z</time></trkpt><trkpt lat="45.630079" lon="9.288962"><ele>196.007</ele><time>2025-07-29T10:48:54.253790667Z</time></trkpt><trkpt lat="45.630101" lon="9.289466"><ele>198.022</ele><time>2025-07-29T10:49:34.253792901Z</time></trkpt><trkpt lat="45.630138" lon="9.290243"><ele>197.096</ele><time>2025-07-29T10:50:14.253795225Z</time></trkpt><trkpt lat="45.630175" lon="9.291244"><ele>195.036</ele><time>2025-07-29T10:50:54.253797529Z</time></trkpt><trkpt lat="45.630194" lon="9.291364"><ele>195.030</ele><time>2025-07-29T10:51:34.253799764Z</time></trkpt><trkpt lat="45.630241" lon="9.291444"><ele>195.035</ele><time>2025-07-29T10:52:14.253802198Z</time></trkpt><trkpt lat="45.630421" lon="9.291529"><ele>193.085</ele><time>2025-07-29T10:52:54.253804472Z</time></trkpt><trkpt lat="45.630520" lon="9.291586"><ele>193.042</ele><time>2025-07-29T10:53:34.253806677Z</time></trkpt><trkpt lat="45.630573" lon="9.291710"><ele>193.081</ele><time>2025-07-29T10:54:14.253809081Z</time></trkpt><trkpt lat="45.630647" lon="9.292270"><ele>195.061</ele><time>2025-07-29T10:54:54.253811405Z</time></trkpt><trkpt lat="45.630747" lon="9.292797"><ele>193.017</ele><time>2025-07-29T10:55:34.253813740Z</time></trkpt><trkpt lat="45.630935" lon="9.293597"><ele>193.007</ele><time>2025-07-29T10:56:14.253816054Z</time></trkpt><trkpt lat="45.631173" lon="9.294615"><ele>193.067</ele><time>2025-07-29T10:56:54.253818308Z</time></trkpt><trkpt lat="45.631369" lon="9.295492"><ele>194.061</ele><time>2025-07-29T10:57:34.253820543Z</time></trkpt><trkpt lat="45.631365" lon="9.295793"><ele>194.031</ele><time>2025-07-29T10:58:14.253822877Z</time></trkpt><trkpt lat="45.631319" lon="9.296023"><ele>193.055</ele><time>2025-07-29T10:58:54.253825141Z</time></trkpt><trkpt lat="45.631216" lon="9.296243"><ele>193.070</ele><time>2025-07-29T10:59:34.253827405Z</time></trkpt><trkpt lat="45.631028" lon="9.296452"><ele>191.040</ele><time>2025-07-29T11:00:14.253829680Z</time></trkpt><trkpt lat="45.630854" lon="9.296549"><ele>187.077</ele><time>2025-07-29T11:00:54.253832124Z</time></trkpt><trkpt lat="45.630621" lon="9.296585"><ele>183.039</ele><time>2025-07-29T11:01:34.253834479Z</time></trkpt><trkpt lat="45.630410" lon="9.296612"><ele>179.001</ele><time>2025-07-29T11:02:14.253836803Z</time></trkpt><trkpt lat="45.630110" lon="9.296646"><ele>176.021</ele><time>2025-07-29T11:02:54.253839107Z</time></trkpt><trkpt lat="45.629773" lon="9.296688"><ele>174.007</ele><time>2025-07-29T11:03:34.253841301Z</time></trkpt><trkpt lat="45.629407" lon="9.296742"><ele>174.032</ele><time>2025-07-29T11:04:14.253843546Z</time></trkpt><trkpt lat="45.629004" lon="9.296797"><ele>183.066</ele><time>2025-07-29T11:04:54.253845840Z</time></trkpt><trkpt lat="45.628590" lon="9.296848"><ele>183.036</ele><time>2025-07-29T11:05:34.253852663Z</time></trkpt><trkpt lat="45.628486" lon="9.296807"><ele>183.070</ele><time>2025-07-29T11:06:14.253854997Z</time></trkpt><trkpt lat="45.628388" lon="9.296717"><ele>185.085</ele><time>2025-07-29T11:06:54.253857261Z</time></trkpt><trkpt lat="45.628287" lon="9.296473"><ele>187.065</ele><time>2025-07-29T11:07:34.253859405Z</time></trkpt><trkpt lat="45.628172" lon="9.296185"><ele>190.092</ele><time>2025-07-29T11:08:14.253861679Z</time></trkpt><trkpt lat="45.627951" lon="9.295614"><ele>193.075</ele><time>2025-07-29T11:08:54.253864054Z</time></trkpt><trkpt lat="45.627748" lon="9.295079"><ele>193.028</ele><time>2025-07-29T11:09:34.253866248Z</time></trkpt><trkpt lat="45.627541" lon="9.294540"><ele>191.020</ele><time>2025-07-29T11:10:14.253868703Z</time></trkpt><trkpt lat="45.627208" lon="9.293684"><ele>192.007</ele><time>2025-07-29T11:10:54.253871037Z</time></trkpt><trkpt lat="45.626866" lon="9.292831"><ele>194.066</ele><time>2025-07-29T11:11:34.253892818Z</time></trkpt><trkpt lat="45.626654" lon="9.292366"><ele>195.090</ele><time>2025-07-29T11:12:14.253895222Z</time></trkpt><trkpt lat="45.626361" lon="9.291814"><ele>195.020</ele><time>2025-07-29T11:12:54.253897456Z</time></trkpt><trkpt lat="45.626087" lon="9.291364"><ele>195.094</ele><time>2025-07-29T11:13:34.253899681Z</time></trkpt><trkpt lat="45.625769" lon="9.290834"><ele>193.089</ele><time>2025-07-29T11:14:14.253901965Z</time></trkpt><trkpt lat="45.625356" lon="9.290161"><ele>193.069</ele><time>2025-07-29T11:14:54.253904209Z</time></trkpt><trkpt lat="45.624982" lon="9.289559"><ele>191.016</ele><time>2025-07-29T11:15:34.253906413Z</time></trkpt><trkpt lat="45.624599" lon="9.288938"><ele>191.016</ele><time>2025-07-29T11:16:14.253908818Z</time></trkpt><trkpt lat="45.624435" lon="9.288652"><ele>190.076</ele><time>2025-07-29T11:16:54.253911172Z</time></trkpt><trkpt lat="45.624125" lon="9.288160"><ele>189.013</ele><time>2025-07-29T11:17:34.253913446Z</time></trkpt><trkpt lat="45.623825" lon="9.287688"><ele>189.007</ele><time>2025-07-29T11:18:14.253915741Z</time></trkpt><trkpt lat="45.623483" lon="9.287135"><ele>188.040</ele><time>2025-07-29T11:18:54.253918095Z</time></trkpt><trkpt lat="45.623080" lon="9.286486"><ele>188.064</ele><time>2025-07-29T11:19:34.253920349Z</time></trkpt><trkpt lat="45.622773" lon="9.285971"><ele>185.054</ele><time>2025-07-29T11:20:14.253922784Z</time></trkpt><trkpt lat="45.622681" lon="9.285885"><ele>185.078</ele><time>2025-07-29T11:20:54.253925228Z</time></trkpt><trkpt lat="45.622578" lon="9.285868"><ele>185.073</ele><time>2025-07-29T11:21:34.253927432Z</time></trkpt><trkpt lat="45.622284" lon="9.285915"><ele>186.063</ele><time>2025-07-29T11:22:14.253929737Z</time></trkpt><trkpt lat="45.622074" lon="9.285916"><ele>187.060</ele><time>2025-07-29T11:22:54.253932081Z</time></trkpt><trkpt lat="45.621812" lon="9.285834"><ele>187.082</ele><time>2025-07-29T11:23:34.253934506Z</time></trkpt><trkpt lat="45.621571" lon="9.285641"><ele>188.043</ele><time>2025-07-29T11:24:14.253936720Z</time></trkpt><trkpt lat="45.621389" lon="9.285392"><ele>190.017</ele><time>2025-07-29T11:24:54.253939104Z</time></trkpt><trkpt lat="45.621275" lon="9.285165"><ele>190.007</ele><time>2025-07-29T11:25:34.253941429Z</time></trkpt><trkpt lat="45.621168" lon="9.285067"><ele>190.077</ele><time>2025-07-29T11:26:14.253943673Z</time></trkpt><trkpt lat="45.621029" lon="9.285002"><ele>190.021</ele><time>2025-07-29T11:26:54.253945957Z</time></trkpt><trkpt lat="45.620761" lon="9.284948"><ele>188.071</ele><time>2025-07-29T11:27:34.253948271Z</time></trkpt><trkpt lat="45.620252" lon="9.284858"><ele>183.025</ele><time>2025-07-29T11:28:14.253950476Z</time></trkpt><trkpt lat="45.619835" lon="9.284786"><ele>181.050</ele><time>2025-07-29T11:28:54.253952770Z</time></trkpt><trkpt lat="45.619412" lon="9.284719"><ele>181.080</ele><time>2025-07-29T11:29:34.253955104Z</time></trkpt><trkpt lat="45.619025" lon="9.284662"><ele>180.077</ele><time>2025-07-29T11:30:14.253957318Z</time></trkpt><trkpt lat="45.618640" lon="9.284598"><ele>178.062</ele><time>2025-07-29T11:30:54.253959673Z</time></trkpt><trkpt lat="45.618208" lon="9.284534"><ele>176.083</ele><time>2025-07-29T11:31:34.253962017Z</time></trkpt><trkpt lat="45.617743" lon="9.284469"><ele>175.011</ele><time>2025-07-29T11:32:14.253964241Z</time></trkpt><trkpt lat="45.617163" lon="9.284386"><ele>177.007</ele><time>2025-07-29T11:32:54.253966546Z</time></trkpt><trkpt lat="45.616699" lon="9.284312"><ele>179.065</ele><time>2025-07-29T11:33:34.253968710Z</time></trkpt><trkpt lat="45.616220" lon="9.284241"><ele>179.099</ele><time>2025-07-29T11:34:14.253970864Z</time></trkpt><trkpt lat="45.615580" lon="9.284157"><ele>178.089</ele><time>2025-07-29T11:34:54.253973018Z</time></trkpt><trkpt lat="45.614356" lon="9.283965"><ele>181.073</ele><time>2025-07-29T11:35:34.253975172Z</time></trkpt><trkpt lat="45.613428" lon="9.283823"><ele>185.028</ele><time>2025-07-29T11:36:14.253977296Z</time></trkpt><trkpt lat="45.612531" lon="9.283691"><ele>182.088</ele><time>2025-07-29T11:36:54.253979420Z</time></trkpt><trkpt lat="45.612308" lon="9.283616"><ele>182.085</ele><time>2025-07-29T11:37:34.253981574Z</time></trkpt><trkpt lat="45.612124" lon="9.283447"><ele>182.014</ele><time>2025-07-29T11:38:14.253983828Z</time></trkpt><trkpt lat="45.611945" lon="9.283104"><ele>183.054</ele><time>2025-07-29T11:38:54.253985992Z</time></trkpt><trkpt lat="45.611884" lon="9.282761"><ele>183.009</ele><time>2025-07-29T11:39:34.253988156Z</time></trkpt><trkpt lat="45.611895" lon="9.282393"><ele>183.007</ele><time>2025-07-29T11:40:14.253990320Z</time></trkpt><trkpt lat="45.611981" lon="9.282031"><ele>184.040</ele><time>2025-07-29T11:40:54.253992484Z</time></trkpt><trkpt lat="45.612157" lon="9.281626"><ele>185.024</ele><time>2025-07-29T11:41:34.253994618Z</time></trkpt><trkpt lat="45.612422" lon="9.281285"><ele>186.024</ele><time>2025-07-29T11:42:14.253997133Z</time></trkpt><trkpt lat="45.612703" lon="9.281044"><ele>185.038</ele><time>2025-07-29T11:42:54.253999237Z</time></trkpt><trkpt lat="45.613054" lon="9.280872"><ele>185.043</ele><time>2025-07-29T11:43:34.254001371Z</time></trkpt><trkpt lat="45.613430" lon="9.280762"><ele>185.093</ele><time>2025-07-29T11:44:14.254003505Z</time></trkpt><trkpt lat="45.614021" lon="9.280717"><ele>179.070</ele><time>2025-07-29T11:44:54.254005719Z</time></trkpt><trkpt lat="45.614929" lon="9.280687"><ele>183.073</ele><time>2025-07-29T11:45:34.254007933Z</time></trkpt><trkpt lat="45.615557" lon="9.280698"><ele>187.085</ele><time>2025-07-29T11:46:14.254010107Z</time></trkpt><trkpt lat="45.616191" lon="9.280776"><ele>185.013</ele><time>2025-07-29T11:46:54.254012261Z</time></trkpt></trkseg></trk></gpx>