<?xml version="1.0" encoding="UTF-8"?>
<gpx creator="Wikiloc - https://www.wikiloc.com" version="1.1" xmlns="http://www.topografix.com/GPX/1/1" xmlns:xsi="http://www.w3.org/2001/XMLSchema-instance" xsi:schemaLocation="http://www.topografix.com/GPX/1/1 http://www.topografix.com/GPX/1/1/gpx.xsd">
  <metadata>
    <name>Wikiloc - Prova interlagos 2305</name>
    <link href="https://www.wikiloc.com/car-trails/prova-interlagos-2305-73889953">
      <text>Prova interlagos 2305 on Wikiloc</text>
    </link>
    <time>2021-05-23T18:39:25Z</time>
  </metadata>
  <trk>
    <name>Prova interlagos 2305</name>
    <cmt></cmt>
    <desc></desc>
    <trkseg>
      <trkpt lat="-23.704678" lon="-46.699926">
        <ele>786.318</ele>
        <time>2021-05-23T17:26:59Z</time>
      </trkpt>
      <trkpt lat="-23.706158" lon="-46.698938">
        <ele>785.298</ele>
        <time>2021-05-23T17:31:10Z</time>
      </trkpt>
      <trkpt lat="-23.705583" lon="-46.697927">
        <ele>773.517</ele>
        <time>2021-05-23T17:31:21Z</time>
      </trkpt>
      <trkpt lat="-23.705982" lon="-46.696451">
        <ele>771.308</ele>
        <time>2021-05-23T17:31:32Z</time>
      </trkpt>
      <trkpt lat="-23.705302" lon="-46.695751">
        <ele>768.348</ele>
        <time>2021-05-23T17:31:39Z</time>
      </trkpt>
      <trkpt lat="-23.700146" lon="-46.694115">
        <ele>751.784</ele>
        <time>2021-05-23T17:32:06Z</time>
      </trkpt>
      <trkpt lat="-23.699496" lon="-46.694249">
        <ele>750.589</ele>
        <time>2021-05-23T17:32:11Z</time>
      </trkpt>
      <trkpt lat="-23.699277" lon="-46.695361">
        <ele>746.019</ele>
        <time>2021-05-23T17:32:17Z</time>
      </trkpt>
      <trkpt lat="-23.699515" lon="-46.696121">
        <ele>747.420</ele>
        <time>2021-05-23T17:32:21Z</time>
      </trkpt>
      <trkpt lat="-23.702435" lon="-46.698572">
        <ele>765.790</ele>
        <time>2021-05-23T17:32:48Z</time>
      </trkpt>
      <trkpt lat="-23.702373" lon="-46.699370">
        <ele>770.616</ele>
        <time>2021-05-23T17:32:53Z</time>
      </trkpt>
      <trkpt lat="-23.701737" lon="-46.699926">
        <ele>774.044</ele>
        <time>2021-05-23T17:32:59Z</time>
      </trkpt>
      <trkpt lat="-23.700555" lon="-46.699953">
        <ele>772.963</ele>
        <time>2021-05-23T17:33:08Z</time>
      </trkpt>
      <trkpt lat="-23.700792" lon="-46.698919">
        <ele>761.844</ele>
        <time>2021-05-23T17:33:17Z</time>
      </trkpt>
      <trkpt lat="-23.700534" lon="-46.698600">
        <ele>759.618</ele>
        <time>2021-05-23T17:33:20Z</time>
      </trkpt>
      <trkpt lat="-23.700237" lon="-46.698579">
        <ele>760.508</ele>
        <time>2021-05-23T17:33:22Z</time>
      </trkpt>
      <trkpt lat="-23.699250" lon="-46.699541">
        <ele>774.133</ele>
        <time>2021-05-23T17:33:31Z</time>
      </trkpt>
      <trkpt lat="-23.698404" lon="-46.699568">
        <ele>778.029</ele>
        <time>2021-05-23T17:33:39Z</time>
      </trkpt>
      <trkpt lat="-23.698382" lon="-46.699254">
        <ele>774.664</ele>
        <time>2021-05-23T17:33:42Z</time>
      </trkpt>
      <trkpt lat="-23.699311" lon="-46.698393">
        <ele>762.794</ele>
        <time>2021-05-23T17:33:50Z</time>
      </trkpt>
      <trkpt lat="-23.699316" lon="-46.697438">
        <ele>754.785</ele>
        <time>2021-05-23T17:33:56Z</time>
      </trkpt>
      <trkpt lat="-23.697685" lon="-46.696153">
        <ele>752.885</ele>
        <time>2021-05-23T17:34:07Z</time>
      </trkpt>
      <trkpt lat="-23.697272" lon="-46.696280">
        <ele>753.781</ele>
        <time>2021-05-23T17:34:11Z</time>
      </trkpt>
      <trkpt lat="-23.697001" lon="-46.697116">
        <ele>758.359</ele>
        <time>2021-05-23T17:34:16Z</time>
      </trkpt>
      <trkpt lat="-23.697171" lon="-46.698583">
        <ele>771.798</ele>
        <time>2021-05-23T17:34:27Z</time>
      </trkpt>
      <trkpt lat="-23.697907" lon="-46.699805">
        <ele>782.915</ele>
        <time>2021-05-23T17:34:40Z</time>
      </trkpt>
      <trkpt lat="-23.700301" lon="-46.700530">
        <ele>784.726</ele>
        <time>2021-05-23T17:34:58Z</time>
      </trkpt>
      <trkpt lat="-23.701552" lon="-46.700565">
        <ele>786.008</ele>
        <time>2021-05-23T17:35:08Z</time>
      </trkpt>
      <trkpt lat="-23.706316" lon="-46.699126">
        <ele>786.956</ele>
        <time>2021-05-23T17:42:56Z</time>
      </trkpt>
      <trkpt lat="-23.705965" lon="-46.698047">
        <ele>777.412</ele>
        <time>2021-05-23T17:43:06Z</time>
      </trkpt>
      <trkpt lat="-23.706250" lon="-46.696787">
        <ele>774.147</ele>
        <time>2021-05-23T17:43:14Z</time>
      </trkpt>
      <trkpt lat="-23.705804" lon="-46.695905">
        <ele>770.637</ele>
        <time>2021-05-23T17:43:20Z</time>
      </trkpt>
      <trkpt lat="-23.700189" lon="-46.694138">
        <ele>752.058</ele>
        <time>2021-05-23T17:43:59Z</time>
      </trkpt>
      <trkpt lat="-23.699594" lon="-46.694171">
        <ele>751.038</ele>
        <time>2021-05-23T17:44:05Z</time>
      </trkpt>
      <trkpt lat="-23.699297" lon="-46.695067">
        <ele>745.464</ele>
        <time>2021-05-23T17:44:11Z</time>
      </trkpt>
      <trkpt lat="-23.699553" lon="-46.696203">
        <ele>747.512</ele>
        <time>2021-05-23T17:44:17Z</time>
      </trkpt>
      <trkpt lat="-23.702367" lon="-46.698560">
        <ele>764.981</ele>
        <time>2021-05-23T17:44:38Z</time>
      </trkpt>
      <trkpt lat="-23.702195" lon="-46.699652">
        <ele>772.361</ele>
        <time>2021-05-23T17:44:45Z</time>
      </trkpt>
      <trkpt lat="-23.700839" lon="-46.700023">
        <ele>771.517</ele>
        <time>2021-05-23T17:44:55Z</time>
      </trkpt>
      <trkpt lat="-23.700457" lon="-46.699731">
        <ele>771.308</ele>
        <time>2021-05-23T17:45:00Z</time>
      </trkpt>
      <trkpt lat="-23.700745" lon="-46.698821">
        <ele>761.085</ele>
        <time>2021-05-23T17:45:07Z</time>
      </trkpt>
      <trkpt lat="-23.700311" lon="-46.698516">
        <ele>759.611</ele>
        <time>2021-05-23T17:45:11Z</time>
      </trkpt>
      <trkpt lat="-23.699125" lon="-46.699541">
        <ele>774.586</ele>
        <time>2021-05-23T17:45:21Z</time>
      </trkpt>
      <trkpt lat="-23.698432" lon="-46.699613">
        <ele>778.466</ele>
        <time>2021-05-23T17:45:27Z</time>
      </trkpt>
      <trkpt lat="-23.698417" lon="-46.699148">
        <ele>773.377</ele>
        <time>2021-05-23T17:45:31Z</time>
      </trkpt>
      <trkpt lat="-23.699416" lon="-46.698200">
        <ele>760.687</ele>
        <time>2021-05-23T17:45:40Z</time>
      </trkpt>
      <trkpt lat="-23.699380" lon="-46.697504">
        <ele>754.833</ele>
        <time>2021-05-23T17:45:44Z</time>
      </trkpt>
      <trkpt lat="-23.697699" lon="-46.696170">
        <ele>752.881</ele>
        <time>2021-05-23T17:45:56Z</time>
      </trkpt>
      <trkpt lat="-23.697259" lon="-46.696263">
        <ele>753.631</ele>
        <time>2021-05-23T17:46:00Z</time>
      </trkpt>
      <trkpt lat="-23.697022" lon="-46.697871">
        <ele>764.761</ele>
        <time>2021-05-23T17:46:11Z</time>
      </trkpt>
      <trkpt lat="-23.697839" lon="-46.699744">
        <ele>782.607</ele>
        <time>2021-05-23T17:46:30Z</time>
      </trkpt>
      <trkpt lat="-23.701349" lon="-46.700573">
        <ele>785.208</ele>
        <time>2021-05-23T17:46:48Z</time>
      </trkpt>
      <trkpt lat="-23.706389" lon="-46.699091">
        <ele>786.860</ele>
        <time>2021-05-23T17:47:06Z</time>
      </trkpt>
      <trkpt lat="-23.706426" lon="-46.698665">
        <ele>784.266</ele>
        <time>2021-05-23T17:47:09Z</time>
      </trkpt>
      <trkpt lat="-23.705919" lon="-46.697931">
        <ele>775.841</ele>
        <time>2021-05-23T17:47:14Z</time>
      </trkpt>
      <trkpt lat="-23.706249" lon="-46.696547">
        <ele>774.331</ele>
        <time>2021-05-23T17:47:21Z</time>
      </trkpt>
      <trkpt lat="-23.705414" lon="-46.695499">
        <ele>770.392</ele>
        <time>2021-05-23T17:47:26Z</time>
      </trkpt>
      <trkpt lat="-23.699997" lon="-46.694102">
        <ele>750.852</ele>
        <time>2021-05-23T17:47:44Z</time>
      </trkpt>
      <trkpt lat="-23.699518" lon="-46.694233">
        <ele>750.628</ele>
        <time>2021-05-23T17:47:48Z</time>
      </trkpt>
      <trkpt lat="-23.699334" lon="-46.695555">
        <ele>746.386</ele>
        <time>2021-05-23T17:47:54Z</time>
      </trkpt>
      <trkpt lat="-23.699538" lon="-46.696169">
        <ele>747.463</ele>
        <time>2021-05-23T17:47:57Z</time>
      </trkpt>
      <trkpt lat="-23.702388" lon="-46.698568">
        <ele>765.244</ele>
        <time>2021-05-23T17:48:12Z</time>
      </trkpt>
      <trkpt lat="-23.702119" lon="-46.699698">
        <ele>772.418</ele>
        <time>2021-05-23T17:48:18Z</time>
      </trkpt>
      <trkpt lat="-23.700953" lon="-46.700061">
        <ele>772.808</ele>
        <time>2021-05-23T17:48:24Z</time>
      </trkpt>
      <trkpt lat="-23.700463" lon="-46.699873">
        <ele>772.823</ele>
        <time>2021-05-23T17:48:28Z</time>
      </trkpt>
      <trkpt lat="-23.700764" lon="-46.699009">
        <ele>762.799</ele>
        <time>2021-05-23T17:48:34Z</time>
      </trkpt>
      <trkpt lat="-23.700426" lon="-46.698556">
        <ele>759.644</ele>
        <time>2021-05-23T17:48:38Z</time>
      </trkpt>
      <trkpt lat="-23.699322" lon="-46.699430">
        <ele>772.154</ele>
        <time>2021-05-23T17:48:45Z</time>
      </trkpt>
      <trkpt lat="-23.698388" lon="-46.699589">
        <ele>778.395</ele>
        <time>2021-05-23T17:48:51Z</time>
      </trkpt>
      <trkpt lat="-23.698374" lon="-46.699178">
        <ele>773.875</ele>
        <time>2021-05-23T17:48:54Z</time>
      </trkpt>
      <trkpt lat="-23.699339" lon="-46.698291">
        <ele>761.811</ele>
        <time>2021-05-23T17:49:00Z</time>
      </trkpt>
      <trkpt lat="-23.699428" lon="-46.697691">
        <ele>756.149</ele>
        <time>2021-05-23T17:49:03Z</time>
      </trkpt>
      <trkpt lat="-23.698923" lon="-46.696860">
        <ele>752.437</ele>
        <time>2021-05-23T17:49:07Z</time>
      </trkpt>
      <trkpt lat="-23.697819" lon="-46.696208">
        <ele>752.549</ele>
        <time>2021-05-23T17:49:12Z</time>
      </trkpt>
      <trkpt lat="-23.697295" lon="-46.696217">
        <ele>753.513</ele>
        <time>2021-05-23T17:49:16Z</time>
      </trkpt>
      <trkpt lat="-23.697050" lon="-46.698162">
        <ele>767.408</ele>
        <time>2021-05-23T17:49:24Z</time>
      </trkpt>
      <trkpt lat="-23.697818" lon="-46.699677">
        <ele>782.090</ele>
        <time>2021-05-23T17:49:30Z</time>
      </trkpt>
      <trkpt lat="-23.698796" lon="-46.700205">
        <ele>784.516</ele>
        <time>2021-05-23T17:49:34Z</time>
      </trkpt>
      <trkpt lat="-23.701479" lon="-46.700612">
        <ele>786.621</ele>
        <time>2021-05-23T17:49:43Z</time>
      </trkpt>
      <trkpt lat="-23.706383" lon="-46.699142">
        <ele>787.271</ele>
        <time>2021-05-23T17:50:03Z</time>
      </trkpt>
      <trkpt lat="-23.706470" lon="-46.698725">
        <ele>784.872</ele>
        <time>2021-05-23T17:50:06Z</time>
      </trkpt>
      <trkpt lat="-23.705921" lon="-46.698082">
        <ele>777.562</ele>
        <time>2021-05-23T17:50:11Z</time>
      </trkpt>
      <trkpt lat="-23.706296" lon="-46.696788">
        <ele>774.748</ele>
        <time>2021-05-23T17:50:19Z</time>
      </trkpt>
      <trkpt lat="-23.705880" lon="-46.695872">
        <ele>771.556</ele>
        <time>2021-05-23T17:50:24Z</time>
      </trkpt>
      <trkpt lat="-23.699551" lon="-46.694146">
        <ele>751.026</ele>
        <time>2021-05-23T17:50:56Z</time>
      </trkpt>
      <trkpt lat="-23.699254" lon="-46.695451">
        <ele>746.147</ele>
        <time>2021-05-23T17:51:02Z</time>
      </trkpt>
      <trkpt lat="-23.699639" lon="-46.696411">
        <ele>747.611</ele>
        <time>2021-05-23T17:51:06Z</time>
      </trkpt>
      <trkpt lat="-23.702143" lon="-46.698240">
        <ele>761.208</ele>
        <time>2021-05-23T17:51:19Z</time>
      </trkpt>
      <trkpt lat="-23.702459" lon="-46.698788">
        <ele>767.319</ele>
        <time>2021-05-23T17:51:23Z</time>
      </trkpt>
      <trkpt lat="-23.702341" lon="-46.699417">
        <ele>770.845</ele>
        <time>2021-05-23T17:51:26Z</time>
      </trkpt>
      <trkpt lat="-23.701867" lon="-46.699897">
        <ele>774.070</ele>
        <time>2021-05-23T17:51:29Z</time>
      </trkpt>
      <trkpt lat="-23.700837" lon="-46.700089">
        <ele>772.810</ele>
        <time>2021-05-23T17:51:34Z</time>
      </trkpt>
      <trkpt lat="-23.700437" lon="-46.699825">
        <ele>772.511</ele>
        <time>2021-05-23T17:51:38Z</time>
      </trkpt>
      <trkpt lat="-23.700780" lon="-46.698863">
        <ele>761.341</ele>
        <time>2021-05-23T17:51:44Z</time>
      </trkpt>
  </trk></gpx>